ONEWEB-0665             
1 55825U 23029AF  24251.47215572  .00000394  00000+0  10272-2 0  9997
2 55825  87.8942  58.5351 0001276  95.5099 264.6176 13.14497368 74318
ONEWEB-0666             
1 55826U 23029AG  24251.46459510  .00000046  00000+0  80297-4 0  9999
2 55826  87.9226  43.3131 0001951  83.0199 277.1156 13.20768268 75658
ONEWEB-0667             
1 55827U 23029AH  24251.45830019  .00000045  00000+0  78895-4 0  9996
2 55827  87.9224  43.2473 0001431  96.0435 264.0862 13.20770235 75640
ONEWEB-0669             
1 55828U 23029AJ  24251.45354959  .00000492  00000+0  11774-2 0  9998
2 55828  87.9223  43.2856 0001798  68.8588 291.2738 13.20771968 75645
ONEWEB-0672             
1 55831U 23029AM  24251.44882264  .00000225  00000+0  52238-3 0  9991
2 55831  87.9223  43.2704 0002005  85.4808 274.6554 13.20769035 75646
ONEWEB-0673             
1 55832U 23029AN  24251.56439858  .00000088  00000+0  18839-3 0  9998
2 55832  87.9096  73.7690 0001493  93.1274 267.0030 13.19722890 73481
